LEMUR-2-GREENBERG       
1 42837U 17042N   26068.46200528  .00019778  00000+0  72539-3 0  9997
2 42837  97.3781 249.8007 0009157   4.0119 356.1192 15.27971352473146
STARLINK-32212          
1 60256U 24131B   26068.35522221 -.00002344  00000+0 -67032-4 0  9990
2 60256  53.1616  54.2633 0001509  79.1336 280.9835 15.30199835 91661
